{"type": "FeatureCollection", "features": [ {"type": "Feature", "properties": {"norad_id": 31183, "name": "FENGYUN 1C DEB", "group": "fengyun-1c-debris", "lat": 75.21901225010382, "lon": -165.7316132010855, "alt_km": 683.7863857596276, "timestamp": "2025-12-18T23:35:49.341413+00:00", "meta": {"OBJECT_NAME": "FENGYUN 1C DEB", "OBJECT_ID": "1999-025BJM", "EPOCH": "2025-12-18T10:34:56.879904", "MEAN_MOTION": 14.50484275, "ECCENTRICITY": 0.00477297, "INCLINATION": 99.036, "RA_OF_ASC_NODE": 336.5943, "ARG_OF_PERICENTER": 90.6611, "MEAN_ANOMALY": 60.9457, "EPHEMERIS_TYPE": 0, "CLASSIFICATION_TYPE": "U", "NORAD_CAT_ID": 31183, "ELEMENT_SET_NO": 999, "REV_AT_EPOCH": 97565, "BSTAR": 0.0009570176, "MEAN_MOTION_DOT": 3.748e-05, "MEAN_MOTION_DDOT": 0}, "tle": {"line1": "1 31183U 99025BJM 25352.44093611  .00003748  00000+0  95702-3 0  9993", "line2": "2 31183  99.0360 336.5943 0047729  90.6611  60.9457 14.50484275975653"}}, "geometry": {"type": "Point", "coordinates": [-165.7316132010855, 75.21901225010382]}}, {"type": "Feature", "properties": {"norad_id": 31185, "name": "FENGYUN 1C DEB", "group": "fengyun-1c-debris", "lat": 64.3336344587474, "lon": -29.607756843462564, "alt_km": 849.281225987922, "timestamp": "2025-12-18T23:35:49.341423+00:00", "meta": {"OBJECT_NAME": "FENGYUN 1C DEB", "OBJECT_ID": "1999-025BJP", "EPOCH": "2025-12-03T06:44:56.905152", "MEAN_MOTION": 14.03019915, "ECCENTRICITY": 0.0041359, "INCLINATION": 98.8321, "RA_OF_ASC_NODE": 334.0356, "ARG_OF_PERICENTER": 132.5488, "MEAN_ANOMALY": 227.9182, "EPHEMERIS_TYPE": 0, "CLASSIFICATION_TYPE": "U", "NORAD_CAT_ID": 31185, "ELEMENT_SET_NO": 999, "REV_AT_EPOCH": 62204, "BSTAR": 0.0004459, "MEAN_MOTION_DOT": 6.55e-06, "MEAN_MOTION_DDOT": 0}, "tle": {"line1": "1 31185U 99025BJP 25337.28121418  .00000655  00000+0  44590-3 0  9990", "line2": "2 31185  98.8321 334.0356 0041359 132.5488 227.9182 14.03019915622046"}}, "geometry": {"type": "Point", "coordinates": [-29.607756843462564, 64.3336344587474]}}, {"type": "Feature", "properties": {"norad_id": 31186, "name": "FENGYUN 1C DEB", "group": "fengyun-1c-debris", "lat": 66.57494511318788, "lon": 110.40402164927067, "alt_km": 835.2096160802539, "timestamp": "2025-12-18T23:35:49.341433+00:00", "meta": {"OBJECT_NAME": "FENGYUN 1C DEB", "OBJECT_ID": "1999-025BJQ", "EPOCH": "2025-12-07T00:08:36.055104", "MEAN_MOTION": 14.12891869, "ECCENTRICITY": 0.00265947, "INCLINATION": 99.1777, "RA_OF_ASC_NODE": 256.2241, "ARG_OF_PERICENTER": 78.4554, "MEAN_ANOMALY": 344.6063, "EPHEMERIS_TYPE": 0, "CLASSIFICATION_TYPE": "U", "NORAD_CAT_ID": 31186, "ELEMENT_SET_NO": 999, "REV_AT_EPOCH": 96024, "BSTAR": 0.00076036897, "MEAN_MOTION_DOT": 1.373e-05, "MEAN_MOTION_DDOT": 0}, "tle": {"line1": "1 31186U 99025BJQ 25341.00597286  .00001373  00000+0  76037-3 0  9995", "line2": "2 31186  99.1777 256.2241 0026594  78.4554 344.6063 14.12891869960248"}}, "geometry": {"type": "Point", "coordinates": [110.40402164927067, 66.57494511318788]}}, {"type": "Feature", "properties": {"norad_id": 31187, "name": "FENGYUN 1C DEB", "group": "fengyun-1c-debris", "lat": -29.294849545285533, "lon": -137.61640705778552, "alt_km": 788.6094808644111, "timestamp": "2025-12-18T23:35:49.341443+00:00", "meta": {"OBJECT_NAME": "FENGYUN 1C DEB", "OBJECT_ID": "1999-025BJR", "EPOCH": "2025-12-18T02:20:54.271104", "MEAN_MOTION": 14.59549756, "ECCENTRICITY": 0.02196552, "INCLINATION": 99.2414, "RA_OF_ASC_NODE": 216.1564, "ARG_OF_PERICENTER": 207.4437, "MEAN_ANOMALY": 151.5021, "EPHEMERIS_TYPE": 0, "CLASSIFICATION_TYPE": "U", "NORAD_CAT_ID": 31187, "ELEMENT_SET_NO": 999, "REV_AT_EPOCH": 69178, "BSTAR": 0.0021858268, "MEAN_MOTION_DOT": 0.00014532, "MEAN_MOTION_DDOT": 0}, "tle": {"line1": "1 31187U 99025BJR 25352.09785036  .00014532  00000+0  21858-2 0  9990", "line2": "2 31187  99.2414 216.1564 0219655 207.4437 151.5021 14.59549756691782"}}, "geometry": {"type": "Point", "coordinates": [-137.61640705778552, -29.294849545285533]}}, {"type": "Feature", "properties": {"norad_id": 31188, "name": "FENGYUN 1C DEB", "group": "fengyun-1c-debris", "lat": 41.465930019467685, "lon": 52.91854312018024, "alt_km": 851.9382958034075, "timestamp": "2025-12-18T23:35:49.341453+00:00", "meta": {"OBJECT_NAME": "FENGYUN 1C DEB", "OBJECT_ID": "1999-025BJS", "EPOCH": "2025-12-18T12:11:17.333664", "MEAN_MOTION": 14.23861687, "ECCENTRICITY": 0.00606265, "INCLINATION": 98.7493, "RA_OF_ASC_NODE": 60.267, "ARG_OF_PERICENTER": 232.9769, "MEAN_ANOMALY": 253.727, "EPHEMERIS_TYPE": 0, "CLASSIFICATION_TYPE": "U", "NORAD_CAT_ID": 31188, "ELEMENT_SET_NO": 999, "REV_AT_EPOCH": 96418, "BSTAR": 0.0012167761, "MEAN_MOTION_DOT": 2.796e-05, "MEAN_MOTION_DDOT": 0}, "tle": {"line1": "1 31188U 99025BJS 25352.50783951  .00002796  00000+0  12168-2 0  9994", "line2": "2 31188  98.7493  60.2670 0060626 232.9769 253.7270 14.23861687964182"}}, "geometry": {"type": "Point", "coordinates": [52.91854312018024, 41.465930019467685]}}, {"type": "Feature", "properties": {"norad_id": 31190, "name": "FENGYUN 1C DEB", "group": "fengyun-1c-debris", "lat": 71.99853520733218, "lon": -145.94013187184063, "alt_km": 909.6104634615385, "timestamp": "2025-12-18T23:35:49.341464+00:00", "meta": {"OBJECT_NAME": "FENGYUN 1C DEB", "OBJECT_ID": "1999-025BJU", "EPOCH": "2025-12-15T23:14:05.075520", "MEAN_MOTION": 14.03609027, "ECCENTRICITY": 0.00676763, "INCLINATION": 98.819, "RA_OF_ASC_NODE": 2.5971, "ARG_OF_PERICENTER": 250.3103, "MEAN_ANOMALY": 109.0754, "EPHEMERIS_TYPE": 0, "CLASSIFICATION_TYPE": "U", "NORAD_CAT_ID": 31190, "ELEMENT_SET_NO": 999, "REV_AT_EPOCH": 95592, "BSTAR": 0.00091857664, "MEAN_MOTION_DOT": 1.428e-05, "MEAN_MOTION_DDOT": 0}, "tle": {"line1": "1 31190U 99025BJU 25349.96811430  .00001428  00000+0  91858-3 0  9992", "line2": "2 31190  98.8190   2.5971 0067676 250.3103 109.0754 14.03609027955929"}}, "geometry": {"type": "Point", "coordinates": [-145.94013187184063, 71.99853520733218]}}, {"type": "Feature", "properties": {"norad_id": 31191, "name": "FENGYUN 1C DEB", "group": "fengyun-1c-debris", "lat": 81.00102877656205, "lon": 151.5231577263308, "alt_km": 740.7413262437467, "timestamp": "2025-12-18T23:35:49.341474+00:00", "meta": {"OBJECT_NAME": "FENGYUN 1C DEB", "OBJECT_ID": "1999-025BJV", "EPOCH": "2025-12-18T13:10:01.794432", "MEAN_MOTION": 14.40803712, "ECCENTRICITY": 0.00925227, "INCLINATION": 98.7828, "RA_OF_ASC_NODE": 253.5953, "ARG_OF_PERICENTER": 177.1077, "MEAN_ANOMALY": 183.0665, "EPHEMERIS_TYPE": 0, "CLASSIFICATION_TYPE": "U", "NORAD_CAT_ID": 31191, "ELEMENT_SET_NO": 999, "REV_AT_EPOCH": 98096, "BSTAR": 0.00024319393, "MEAN_MOTION_DOT": 7.7e-06, "MEAN_MOTION_DDOT": 0}, "tle": {"line1": "1 31191U 99025BJV 25352.54863188  .00000770  00000+0  24319-3 0  9995", "line2": "2 31191  98.7828 253.5953 0092522 177.1077 183.0665 14.40803712980962"}}, "geometry": {"type": "Point", "coordinates": [151.5231577263308, 81.00102877656205]}}, {"type": "Feature", "properties": {"norad_id": 31192, "name": "FENGYUN 1C DEB", "group": "fengyun-1c-debris", "lat": -81.42089225936725, "lon": 70.4826866111489, "alt_km": 1016.0068200698206, "timestamp": "2025-12-18T23:35:49.341485+00:00", "meta": {"OBJECT_NAME": "FENGYUN 1C DEB", "OBJECT_ID": "1999-025BJW", "EPOCH": "2025-12-18T05:26:47.399136", "MEAN_MOTION": 14.20969234, "ECCENTRICITY": 0.02596771, "INCLINATION": 98.5531, "RA_OF_ASC_NODE": 335.7459, "ARG_OF_PERICENTER": 87.8687, "MEAN_ANOMALY": 275.22, "EPHEMERIS_TYPE": 0, "CLASSIFICATION_TYPE": "U", "NORAD_CAT_ID": 31192, "ELEMENT_SET_NO": 999, "REV_AT_EPOCH": 96821, "BSTAR": 0.00023851293, "MEAN_MOTION_DOT": 6.81e-06, "MEAN_MOTION_DDOT": 0}, "tle": {"line1": "1 31192U 99025BJW 25352.22693749  .00000681  00000+0  23851-3 0  9996", "line2": "2 31192  98.5531 335.7459 0259677  87.8687 275.2200 14.20969234968219"}}, "geometry": {"type": "Point", "coordinates": [70.4826866111489, -81.42089225936725]}}, {"type": "Feature", "properties": {"norad_id": 31194, "name": "FENGYUN 1C DEB", "group": "fengyun-1c-debris", "lat": -5.996871799338261, "lon": 61.355788450823255, "alt_km": 762.2469100815024, "timestamp": "2025-12-18T23:35:49.341495+00:00", "meta": {"OBJECT_NAME": "FENGYUN 1C DEB", "OBJECT_ID": "1999-025BJY", "EPOCH": "2025-12-17T03:16:12.436320", "MEAN_MOTION": 14.3667618, "ECCENTRICITY": 0.00570782, "INCLINATION": 98.9641, "RA_OF_ASC_NODE": 240.384, "ARG_OF_PERICENTER": 266.1914, "MEAN_ANOMALY": 93.2744, "EPHEMERIS_TYPE": 0, "CLASSIFICATION_TYPE": "U", "NORAD_CAT_ID": 31194, "ELEMENT_SET_NO": 999, "REV_AT_EPOCH": 97190, "BSTAR": 0.00077644031, "MEAN_MOTION_DOT": 2.282e-05, "MEAN_MOTION_DDOT": 0}, "tle": {"line1": "1 31194U 99025BJY 25351.13625505  .00002282  00000+0  77644-3 0  9990", "line2": "2 31194  98.9641 240.3840 0057078 266.1914  93.2744 14.36676180971901"}}, "geometry": {"type": "Point", "coordinates": [61.355788450823255, -5.996871799338261]}}, {"type": "Feature", "properties": {"norad_id": 31195, "name": "FENGYUN 1C DEB", "group": "fengyun-1c-debris", "lat": 48.96581860594399, "lon": 15.906460313140048, "alt_km": 910.2892323112201, "timestamp": "2025-12-18T23:35:49.341506+00:00", "meta": {"OBJECT_NAME": "FENGYUN 1C DEB", "OBJECT_ID": "1999-025BJZ", "EPOCH": "2025-12-18T13:07:20.480448", "MEAN_MOTION": 14.07982413, "ECCENTRICITY": 0.01721725, "INCLINATION": 98.7785, "RA_OF_ASC_NODE": 25.7085, "ARG_OF_PERICENTER": 164.8261, "MEAN_ANOMALY": 195.8165, "EPHEMERIS_TYPE": 0, "CLASSIFICATION_TYPE": "U", "NORAD_CAT_ID": 31195, "ELEMENT_SET_NO": 999, "REV_AT_EPOCH": 96180, "BSTAR": 9.7795653e-05, "MEAN_MOTION_DOT": 1.48e-06, "MEAN_MOTION_DDOT": 0}, "tle": {"line1": "1 31195U 99025BJZ 25352.54676482  .00000148  00000+0  97796-4 0  9997", "line2": "2 31195  98.7785  25.7085 0172172 164.8261 195.8165 14.07982413961808"}}, "geometry": {"type": "Point", "coordinates": [15.906460313140048, 48.96581860594399]}}]}